[{"OBJECT_NAME":"ONEWEB-0142","OBJECT_ID":"2020-100AG","EPOCH":"2025-12-04T16:12:00.296352","MEAN_MOTION":13.12440013,"ECCENTRICITY":0.0001322,"INCLINATION":87.8948,"RA_OF_ASC_NODE":29.3095,"ARG_OF_PERICENTER":95.087,"MEAN_ANOMALY":265.0409,"EPHEMERIS_TYPE":0,"CLASSIFICATION_TYPE":"U","NORAD_CAT_ID":47288,"ELEMENT_SET_NO":999,"REV_AT_EPOCH":23915,"BSTAR":0.0012191,"MEAN_MOTION_DOT":4.51e-6,"MEAN_MOTION_DDOT":0},{"OBJECT_NAME":"ONEWEB-0143","OBJECT_ID":"2020-100AH","EPOCH":"2025-12-04T16:25:48.443808","MEAN_MOTION":13.12440997,"ECCENTRICITY":0.0001719,"INCLINATION":87.8946,"RA_OF_ASC_NODE":29.3034,"ARG_OF_PERICENTER":99.5053,"MEAN_ANOMALY":260.627,"EPHEMERIS_TYPE":0,"CLASSIFICATION_TYPE":"U","NORAD_CAT_ID":47289,"ELEMENT_SET_NO":999,"REV_AT_EPOCH":23913,"BSTAR":0.0009525,"MEAN_MOTION_DOT":3.55e-6,"MEAN_MOTION_DDOT":0},{"OBJECT_NAME":"ONEWEB-0144","OBJECT_ID":"2020-100AJ","EPOCH":"2025-12-04T15:46:07.609728","MEAN_MOTION":13.12435256,"ECCENTRICITY":0.0001559,"INCLINATION":87.8945,"RA_OF_ASC_NODE":29.2781,"ARG_OF_PERICENTER":86.5763,"MEAN_ANOMALY":273.5544,"EPHEMERIS_TYPE":0,"CLASSIFICATION_TYPE":"U","NORAD_CAT_ID":47290,"ELEMENT_SET_NO":999,"REV_AT_EPOCH":23905,"BSTAR":-0.0029948,"MEAN_MOTION_DOT":-1.064e-5,"MEAN_MOTION_DDOT":0},{"OBJECT_NAME":"ONEWEB-0145","OBJECT_ID":"2020-100AK","EPOCH":"2025-12-04T15:04:04.018656","MEAN_MOTION":13.12442541,"ECCENTRICITY":0.0001671,"INCLINATION":87.895,"RA_OF_ASC_NODE":29.3219,"ARG_OF_PERICENTER":96.4546,"MEAN_ANOMALY":263.6773,"EPHEMERIS_TYPE":0,"CLASSIFICATION_TYPE":"U","NORAD_CAT_ID":47291,"ELEMENT_SET_NO":999,"REV_AT_EPOCH":23924,"BSTAR":-0.00086547,"MEAN_MOTION_DOT":-2.99e-6,"MEAN_MOTION_DDOT":0},{"OBJECT_NAME":"ONEWEB-0146","OBJECT_ID":"2020-100AL","EPOCH":"2025-12-04T14:59:23.685216","MEAN_MOTION":13.12442659,"ECCENTRICITY":0.0002013,"INCLINATION":87.8946,"RA_OF_ASC_NODE":29.309,"ARG_OF_PERICENTER":104.3374,"MEAN_ANOMALY":255.7978,"EPHEMERIS_TYPE":0,"CLASSIFICATION_TYPE":"U","NORAD_CAT_ID":47292,"ELEMENT_SET_NO":999,"REV_AT_EPOCH":23915,"BSTAR":-0.00053597,"MEAN_MOTION_DOT":-1.8e-6,"MEAN_MOTION_DDOT":0},{"OBJECT_NAME":"ONEWEB-0147","OBJECT_ID":"2020-100AM","EPOCH":"2025-12-04T16:00:07.589664","MEAN_MOTION":13.12444274,"ECCENTRICITY":0.000186,"INCLINATION":87.8953,"RA_OF_ASC_NODE":29.2787,"ARG_OF_PERICENTER":89.6422,"MEAN_ANOMALY":270.4919,"EPHEMERIS_TYPE":0,"CLASSIFICATION_TYPE":"U","NORAD_CAT_ID":47293,"ELEMENT_SET_NO":999,"REV_AT_EPOCH":23905,"BSTAR":0.0011131,"MEAN_MOTION_DOT":4.13e-6,"MEAN_MOTION_DDOT":0},{"OBJECT_NAME":"ONEWEB-0115","OBJECT_ID":"2021-025A","EPOCH":"2025-12-04T14:50:07.420416","MEAN_MOTION":13.13470072,"ECCENTRICITY":0.0001779,"INCLINATION":87.8988,"RA_OF_ASC_NODE":358.8879,"ARG_OF_PERICENTER":93.9433,"MEAN_ANOMALY":266.1899,"EPHEMERIS_TYPE":0,"CLASSIFICATION_TYPE":"U","NORAD_CAT_ID":48042,"ELEMENT_SET_NO":999,"REV_AT_EPOCH":22805,"BSTAR":-0.00067541,"MEAN_MOTION_DOT":-2.34e-6,"MEAN_MOTION_DDOT":0},{"OBJECT_NAME":"ONEWEB-0152","OBJECT_ID":"2021-025B","EPOCH":"2025-12-04T15:09:37.642752","MEAN_MOTION":13.13470048,"ECCENTRICITY":0.0001894,"INCLINATION":87.898,"RA_OF_ASC_NODE":358.8928,"ARG_OF_PERICENTER":95.2176,"MEAN_ANOMALY":264.9169,"EPHEMERIS_TYPE":0,"CLASSIFICATION_TYPE":"U","NORAD_CAT_ID":48043,"ELEMENT_SET_NO":999,"REV_AT_EPOCH":22801,"BSTAR":-0.00072281,"MEAN_MOTION_DOT":-2.51e-6,"MEAN_MOTION_DDOT":0},{"OBJECT_NAME":"ONEWEB-0153","OBJECT_ID":"2021-025C","EPOCH":"2025-12-04T14:37:56.497152","MEAN_MOTION":13.13469578,"ECCENTRICITY":0.0001662,"INCLINATION":87.8985,"RA_OF_ASC_NODE":358.9022,"ARG_OF_PERICENTER":92.5799,"MEAN_ANOMALY":267.5521,"EPHEMERIS_TYPE":0,"CLASSIFICATION_TYPE":"U","NORAD_CAT_ID":48044,"ELEMENT_SET_NO":999,"REV_AT_EPOCH":22800,"BSTAR":7.3712e-5,"MEAN_MOTION_DOT":4.0e-7,"MEAN_MOTION_DDOT":0},{"OBJECT_NAME":"ONEWEB-0154","OBJECT_ID":"2021-025D","EPOCH":"2025-12-04T14:33:03.874176","MEAN_MOTION":13.13469957,"ECCENTRICITY":0.000178,"INCLINATION":87.8986,"RA_OF_ASC_NODE":358.8993,"ARG_OF_PERICENTER":90.7732,"MEAN_ANOMALY":269.3601,"EPHEMERIS_TYPE":0,"CLASSIFICATION_TYPE":"U","NORAD_CAT_ID":48045,"ELEMENT_SET_NO":999,"REV_AT_EPOCH":22796,"BSTAR":0.00033474,"MEAN_MOTION_DOT":1.35e-6,"MEAN_MOTION_DDOT":0},{"OBJECT_NAME":"ONEWEB-0116","OBJECT_ID":"2021-025E","EPOCH":"2025-12-04T13:39:25.795584","MEAN_MOTION":13.13470955,"ECCENTRICITY":0.0001887,"INCLINATION":87.8989,"RA_OF_ASC_NODE":358.8909,"ARG_OF_PERICENTER":95.4846,"MEAN_ANOMALY":264.6498,"EPHEMERIS_TYPE":0,"CLASSIFICATION_TYPE":"U","NORAD_CAT_ID":48046,"ELEMENT_SET_NO":999,"REV_AT_EPOCH":22810,"BSTAR":-0.00015396,"MEAN_MOTION_DOT":-4.3e-7,"MEAN_MOTION_DDOT":0},{"OBJECT_NAME":"ONEWEB-0150","OBJECT_ID":"2021-025F","EPOCH":"2025-12-04T13:05:17.541024","MEAN_MOTION":13.13469829,"ECCENTRICITY":0.00016,"INCLINATION":87.8993,"RA_OF_ASC_NODE":358.8912,"ARG_OF_PERICENTER":96.9007,"MEAN_ANOMALY":263.2304,"EPHEMERIS_TYPE":0,"CLASSIFICATION_TYPE":"U","NORAD_CAT_ID":48047,"ELEMENT_SET_NO":999,"REV_AT_EPOCH":22799,"BSTAR":-0.00071991,"MEAN_MOTION_DOT":-2.5e-6,"MEAN_MOTION_DDOT":0},{"OBJECT_NAME":"ONEWEB-0107","OBJECT_ID":"2021-025G","EPOCH":"2025-12-04T14:57:26.239104","MEAN_MOTION":13.13469945,"ECCENTRICITY":0.0001539,"INCLINATION":87.899,"RA_OF_ASC_NODE":358.8724,"ARG_OF_PERICENTER":86.6812,"MEAN_ANOMALY":273.4493,"EPHEMERIS_TYPE":0,"CLASSIFICATION_TYPE":"U","NORAD_CAT_ID":48048,"ELEMENT_SET_NO":999,"REV_AT_EPOCH":22798,"BSTAR":-0.0005873,"MEAN_MOTION_DOT":-2.02e-6,"MEAN_MOTION_DDOT":0},{"OBJECT_NAME":"ONEWEB-0101","OBJECT_ID":"2021-025H","EPOCH":"2025-12-04T14:03:48.500064","MEAN_MOTION":13.13470997,"ECCENTRICITY":0.000173,"INCLINATION":87.8981,"RA_OF_ASC_NODE":358.9136,"ARG_OF_PERICENTER":87.2115,"MEAN_ANOMALY":272.9212,"EPHEMERIS_TYPE":0,"CLASSIFICATION_TYPE":"U","NORAD_CAT_ID":48049,"ELEMENT_SET_NO":999,"REV_AT_EPOCH":22795,"BSTAR":0.00090463,"MEAN_MOTION_DOT":3.43e-6,"MEAN_MOTION_DDOT":0},{"OBJECT_NAME":"ONEWEB-0113","OBJECT_ID":"2021-025J","EPOCH":"2025-12-04T14:31:53.033088","MEAN_MOTION":13.13983834,"ECCENTRICITY":0.0001811,"INCLINATION":87.8989,"RA_OF_ASC_NODE":358.8397,"ARG_OF_PERICENTER":100.99,"MEAN_ANOMALY":259.1433,"EPHEMERIS_TYPE":0,"CLASSIFICATION_TYPE":"U","NORAD_CAT_ID":48050,"ELEMENT_SET_NO":999,"REV_AT_EPOCH":22805,"BSTAR":0.00017803,"MEAN_MOTION_DOT":7.8e-7,"MEAN_MOTION_DDOT":0},{"OBJECT_NAME":"ONEWEB-0112","OBJECT_ID":"2021-025K","EPOCH":"2025-12-04T15:04:44.686272","MEAN_MOTION":13.13470546,"ECCENTRICITY":0.0001686,"INCLINATION":87.899,"RA_OF_ASC_NODE":358.8685,"ARG_OF_PERICENTER":94.5085,"MEAN_ANOMALY":265.6237,"EPHEMERIS_TYPE":0,"CLASSIFICATION_TYPE":"U","NORAD_CAT_ID":48051,"ELEMENT_SET_NO":999,"REV_AT_EPOCH":22805,"BSTAR":-0.00078891,"MEAN_MOTION_DOT":-2.75e-6,"MEAN_MOTION_DDOT":0},{"OBJECT_NAME":"ONEWEB-0156","OBJECT_ID":"2021-025L","EPOCH":"2025-12-04T13:27:13.985856","MEAN_MOTION":13.13470869,"ECCENTRICITY":0.00016,"INCLINATION":87.899,"RA_OF_ASC_NODE":358.8934,"ARG_OF_PERICENTER":92.226,"MEAN_ANOMALY":267.9053,"EPHEMERIS_TYPE":0,"CLASSIFICATION_TYPE":"U","NORAD_CAT_ID":48052,"ELEMENT_SET_NO":999,"REV_AT_EPOCH":22802,"BSTAR":-0.00058878,"MEAN_MOTION_DOT":-2.02e-6,"MEAN_MOTION_DDOT":0}]
