ONEWEB-0142             
1 47288U 20100AG  25338.67500343  .00000451  00000+0  12191-2 0  9996
2 47288  87.8948  29.3095 0001322  95.0870 265.0409 13.12440013239155
ONEWEB-0143             
1 47289U 20100AH  25338.68458847  .00000355  00000+0  95250-3 0  9990
2 47289  87.8946  29.3034 0001719  99.5053 260.6270 13.12440997239135
ONEWEB-0144             
1 47290U 20100AJ  25338.65703252 -.00001064  00000+0 -29948-2 0  9992
2 47290  87.8945  29.2781 0001559  86.5763 273.5544 13.12435256239050
ONEWEB-0145             
1 47291U 20100AK  25338.62782429 -.00000299  00000+0 -86547-3 0  9991
2 47291  87.8950  29.3219 0001671  96.4546 263.6773 13.12442541239248
ONEWEB-0146             
1 47292U 20100AL  25338.62457969 -.00000180  00000+0 -53597-3 0  9998
2 47292  87.8946  29.3090 0002013 104.3374 255.7978 13.12442659239159
ONEWEB-0147             
1 47293U 20100AM  25338.66675451  .00000413  00000+0  11131-2 0  9995
2 47293  87.8953  29.2787 0001860  89.6422 270.4919 13.12444274239051
ONEWEB-0115             
1 48042U 21025A   25338.61814144 -.00000234  00000+0 -67541-3 0  9994
2 48042  87.8988 358.8879 0001779  93.9433 266.1899 13.13470072228057
ONEWEB-0152             
1 48043U 21025B   25338.63168568 -.00000251  00000+0 -72281-3 0  9995
2 48043  87.8980 358.8928 0001894  95.2176 264.9169 13.13470048228017
ONEWEB-0153             
1 48044U 21025C   25338.60968168  .00000040  00000+0  73712-4 0  9992
2 48044  87.8985 358.9022 0001662  92.5799 267.5521 13.13469578228009
ONEWEB-0154             
1 48045U 21025D   25338.60629484  .00000135  00000+0  33474-3 0  9993
2 48045  87.8986 358.8993 0001780  90.7732 269.3601 13.13469957227969
ONEWEB-0116             
1 48046U 21025E   25338.56904856 -.00000043  00000+0 -15396-3 0  9991
2 48046  87.8989 358.8909 0001887  95.4846 264.6498 13.13470955228105
ONEWEB-0150             
1 48047U 21025F   25338.54534191 -.00000250  00000+0 -71991-3 0  9994
2 48047  87.8993 358.8912 0001600  96.9007 263.2304 13.13469829227998
ONEWEB-0107             
1 48048U 21025G   25338.62322036 -.00000202  00000+0 -58730-3 0  9990
2 48048  87.8990 358.8724 0001539  86.6812 273.4493 13.13469945227988
ONEWEB-0101             
1 48049U 21025H   25338.58597801  .00000343  00000+0  90463-3 0  9993
2 48049  87.8981 358.9136 0001730  87.2115 272.9212 13.13470997227952
ONEWEB-0113             
1 48050U 21025J   25338.60547492  .00000078  00000+0  17803-3 0  9991
2 48050  87.8989 358.8397 0001811 100.9900 259.1433 13.13983834228058
ONEWEB-0112             
1 48051U 21025K   25338.62829498 -.00000275  00000+0 -78891-3 0  9998
2 48051  87.8990 358.8685 0001686  94.5085 265.6237 13.13470546228058
ONEWEB-0156             
1 48052U 21025L   25338.56057854 -.00000202  00000+0 -58878-3 0  9994
2 48052  87.8990 358.8934 0001600  92.2260 267.9053 13.13470869228028
